{
"type": "FeatureCollection",
"name": "restaurants",
"crs": { "type": "name", "properties": { "name": "urn:ogc:def:crs:OGC:1.3:CRS84" } },
"features": [
{ "type": "Feature", "properties": { "name": "Amore Fantasia", "address": "Norra Storgatan 1", "Serveringstider": "11:30—01:00 11:30—00:30", "latitude": 56.0473798, "longitude": 12.6954643 }, "geometry": { "type": "Point", "coordinates": [ 12.6954643, 56.0473798 ] } },
{ "type": "Feature", "properties": { "name": "Aroma Restaurang", "address": "Norra Kyrkogatan 10", "Serveringstider": "11:00—01:00 11:00—00:30", "latitude": 56.0463458, "longitude": 12.6951428 }, "geometry": { "type": "Point", "coordinates": [ 12.6951428, 56.0463458 ] } },
{ "type": "Feature", "properties": { "name": "Backhaus Oceanhamnen", "address": "Henckels Torg 4", "Serveringstider": "11:00—02:00 11:00—00:00 11:00—01:00", "latitude": 56.0419522, "longitude": 12.6919723 }, "geometry": { "type": "Point", "coordinates": [ 12.6919723, 56.0419522 ] } },
{ "type": "Feature", "properties": { "name": "Badvakten", "address": "Drottninggatan 95", "Serveringstider": "11:00—01:00", "latitude": 56.0583527, "longitude": 12.6821787 }, "geometry": { "type": "Point", "coordinates": [ 12.6821787, 56.0583527 ] } },
{ "type": "Feature", "properties": { "name": "Banh Mi King (city)", "address": "Bruksgatan 34", "Serveringstider": "11:00—01:00 11:00—00:30", "latitude": 56.0439023, "longitude": 12.6970813 }, "geometry": { "type": "Point", "coordinates": [ 12.6970813, 56.0439023 ] } },
{ "type": "Feature", "properties": { "name": "Bankpalatset", "address": "Järnvägsgatan 7", "Serveringstider": "11:00—02:00 11:00—03:00 11:00—03:00 11:00—00:30", "latitude": 56.045351, "longitude": 12.6942831 }, "geometry": { "type": "Point", "coordinates": [ 12.6942831, 56.045351 ] } },
{ "type": "Feature", "properties": { "name": "Bar & Café Markelius Konserthuset", "address": "Roskildegatan 1", "Serveringstider": "11:00—01:00", "latitude": 56.0493837, "longitude": 12.6889783 }, "geometry": { "type": "Point", "coordinates": [ 12.6889783, 56.0493837 ] } },
{ "type": "Feature", "properties": { "name": "Bara Vara", "address": "Fågelsångsgatan 2", "Serveringstider": "11:00—03:00 11:00—00:30 11:00—01:00", "latitude": 56.0493137, "longitude": 12.6938233 }, "geometry": { "type": "Point", "coordinates": [ 12.6938233, 56.0493137 ] } },
{ "type": "Feature", "properties": { "name": "Barski", "address": "Norra Storgatan 16", "Serveringstider": "11:00—01:00 11:00—23:00 11:00—01:00", "latitude": 56.0484558, "longitude": 12.694059 }, "geometry": { "type": "Point", "coordinates": [ 12.694059, 56.0484558 ] } },
{ "type": "Feature", "properties": { "name": "Bastard Burgers", "address": "Södergatan 30", "Serveringstider": "11:00—01:00 11:00—22:00", "latitude": 56.0407438, "longitude": 12.7013723 }, "geometry": { "type": "Point", "coordinates": [ 12.7013723, 56.0407438 ] } },
{ "type": "Feature", "properties": { "name": "Bastard Burgers Helsingborg City", "address": "Norra Kyrkogatan 12", "Serveringstider": "11:00—23:00", "latitude": 56.0463841, "longitude": 12.6953185 }, "geometry": { "type": "Point", "coordinates": [ 12.6953185, 56.0463841 ] } },
{ "type": "Feature", "properties": { "name": "Batteritorget kök pub glass", "address": "Batteritorget 1", "Serveringstider": "11:00—01:00 11:00—00:30", "latitude": 55.9965228, "longitude": 12.7400982 }, "geometry": { "type": "Point", "coordinates": [ 12.7400982, 55.9965228 ] } },
{ "type": "Feature", "properties": { "name": "Benchwarmers Brewing Co", "address": "Industrigatan 121", "Serveringstider": "11:00—23:00", "latitude": 56.0078318, "longitude": 12.7256312 }, "geometry": { "type": "Point", "coordinates": [ 12.7256312, 56.0078318 ] } },
{ "type": "Feature", "properties": { "name": "Benchwarmers Taproom", "address": "Helsingörskajen 2", "Serveringstider": "11:00—01:00 11:00—00:30 11:00—01:00", "latitude": 56.0464064, "longitude": 12.6890168 }, "geometry": { "type": "Point", "coordinates": [ 12.6890168, 56.0464064 ] } },
{ "type": "Feature", "properties": { "name": "Benchwarmers Taproom Oceanhamnen", "address": "Vågbrytargränd 2", "Serveringstider": "11:00—01:00 11:00—00:30", "latitude": 56.041841, "longitude": 12.6906361 }, "geometry": { "type": "Point", "coordinates": [ 12.6906361, 56.041841 ] } },
{ "type": "Feature", "properties": { "name": "Big Buddha", "address": "Ålgränden 1", "Serveringstider": "11:00—01:00 11:00—00:30", "latitude": 56.0488419, "longitude": 12.6912648 }, "geometry": { "type": "Point", "coordinates": [ 12.6912648, 56.0488419 ] } },
{ "type": "Feature", "properties": { "name": "Bikten", "address": "Mariagatan 10", "Serveringstider": "11:00—03:00 11:00—00:30 11:00—03:00", "latitude": 56.045972, "longitude": 12.6959438 }, "geometry": { "type": "Point", "coordinates": [ 12.6959438, 56.045972 ] } },
{ "type": "Feature", "properties": { "name": "Bistro 46", "address": "Rååvägen 46", "Serveringstider": "11:00—01:00 11:00—00:30 11:00—01:00", "latitude": 56.0005698, "longitude": 12.7387284 }, "geometry": { "type": "Point", "coordinates": [ 12.7387284, 56.0005698 ] } },
{ "type": "Feature", "properties": { "name": "Bistråå Strandkrog", "address": "Kustgatan 94", "Serveringstider": "11:00—01:00", "latitude": 56.0024953, "longitude": 12.7321248 }, "geometry": { "type": "Point", "coordinates": [ 12.7321248, 56.0024953 ] } },
{ "type": "Feature", "properties": { "name": "Black Smith Burger", "address": "Regementsvägen 4", "Serveringstider": "11:00—01:00 11:00—00:30 11:00—01:00", "latitude": 56.0632637, "longitude": 12.7174833 }, "geometry": { "type": "Point", "coordinates": [ 12.7174833, 56.0632637 ] } },
{ "type": "Feature", "properties": { "name": "Blå Tuppen", "address": "Väla Centrum", "Serveringstider": "11:00—01:00", "latitude": 56.0916312, "longitude": 12.7575316 }, "geometry": { "type": "Point", "coordinates": [ 12.7575316, 56.0916312 ] } },
{ "type": "Feature", "properties": { "name": "Bollbrolyckan", "address": "Bollbrogatan 4 - 6", "Serveringstider": "11:00—01:00 01:00—03:00 11:00—00:30 11:00—01:00", "latitude": 56.0418557, "longitude": 12.6995472 }, "geometry": { "type": "Point", "coordinates": [ 12.6995472, 56.0418557 ] } },
{ "type": "Feature", "properties": { "name": "Bosco", "address": "Drottninggatan 15", "Serveringstider": "11:00—01:00 11:00—00:30 11:00—01:00", "latitude": 56.0489268, "longitude": 12.6896722 }, "geometry": { "type": "Point", "coordinates": [ 12.6896722, 56.0489268 ] } },
{ "type": "Feature", "properties": { "name": "Brasserie Le Coq Rouge", "address": "Bruksgatan 19", "Serveringstider": "11:00—01:00 11:00—00:00 11:00—01:00", "latitude": 56.0446367, "longitude": 12.6968708 }, "geometry": { "type": "Point", "coordinates": [ 12.6968708, 56.0446367 ] } },
{ "type": "Feature", "properties": { "name": "Brasseriet", "address": "Redaregatan 50", "Serveringstider": "10:00—03:00 10:00—01:00 10:00—03:00 01:00—03:00", "latitude": 56.0424592, "longitude": 12.6908063 }, "geometry": { "type": "Point", "coordinates": [ 12.6908063, 56.0424592 ] } },
{ "type": "Feature", "properties": { "name": "Brewski Brew", "address": "Cindersgatan 8", "Serveringstider": "11:00—01:00 11:00—01:00", "latitude": 56.0332491, "longitude": 12.7050933 }, "geometry": { "type": "Point", "coordinates": [ 12.7050933, 56.0332491 ] } },
{ "type": "Feature", "properties": { "name": "Brunchoteket", "address": "Drottninggatan 14", "Serveringstider": "11:00—23:00 11:00—23:00", "latitude": 56.0473605, "longitude": 12.6920651 }, "geometry": { "type": "Point", "coordinates": [ 12.6920651, 56.0473605 ] } },
{ "type": "Feature", "properties": { "name": "Brutale", "address": "Drottninggatan 20-22", "Serveringstider": "11:00—01:00 11:00—00:30 11:00—01:00", "latitude": 56.0473753, "longitude": 12.6916051 }, "geometry": { "type": "Point", "coordinates": [ 12.6916051, 56.0473753 ] } },
{ "type": "Feature", "properties": { "name": "Brödernas Helsingborg Central", "address": "Kungstorget 8", "Serveringstider": "11:00—01:00", "latitude": 56.0442787, "longitude": 12.6944725 }, "geometry": { "type": "Point", "coordinates": [ 12.6944725, 56.0442787 ] } },
{ "type": "Feature", "properties": { "name": "Bullangeriet Fikabar", "address": "Kullagatan 8", "Serveringstider": "11:00—18:00 11:00—23:00", "latitude": 56.0475732, "longitude": 12.6941246 }, "geometry": { "type": "Point", "coordinates": [ 12.6941246, 56.0475732 ] } },
{ "type": "Feature", "properties": { "name": "Bulls Biljard", "address": "Norra Strandgatan 32", "Serveringstider": "11:00—02:00", "latitude": 56.0483804, "longitude": 12.6919246 }, "geometry": { "type": "Point", "coordinates": [ 12.6919246, 56.0483804 ] } },
{ "type": "Feature", "properties": { "name": "Bågen Mat & Bar i Maria Park", "address": "Grepgatan 38", "Serveringstider": "11:00—22:00 11:00—00:00 11:00—22:00 11:00—00:00", "latitude": 56.0809982, "longitude": 12.7052243 }, "geometry": { "type": "Point", "coordinates": [ 12.7052243, 56.0809982 ] } },
{ "type": "Feature", "properties": { "name": "Båten Restaurang & Bar", "address": "Helsingörskajen 102", "Serveringstider": "11:00—02:30 11:00—00:30 11:00—00:30", "latitude": 56.0464751, "longitude": 12.6897052 }, "geometry": { "type": "Point", "coordinates": [ 12.6897052, 56.0464751 ] } },
{ "type": "Feature", "properties": { "name": "Café & Restaurang Tegel", "address": "Ytterövägen 167", "Serveringstider": "11:00—01:00 11:00—01:00", "latitude": 55.9684354, "longitude": 12.7588993 }, "geometry": { "type": "Point", "coordinates": [ 12.7588993, 55.9684354 ] } },
{ "type": "Feature", "properties": { "name": "Café 1886 AB", "address": "Drottninggatan 30", "Serveringstider": "10:00—01:00 10:00—00:30", "latitude": 56.0482727, "longitude": 12.691432 }, "geometry": { "type": "Point", "coordinates": [ 12.691432, 56.0482727 ] } },
{ "type": "Feature", "properties": { "name": "Café Due", "address": "Mariagatan 2", "Serveringstider": "11:00—01:00 11:00—00:30", "latitude": 56.046414, "longitude": 12.6955043 }, "geometry": { "type": "Point", "coordinates": [ 12.6955043, 56.046414 ] } },
{ "type": "Feature", "properties": { "name": "Cafe Etoile", "address": "Drottninggatan 27", "Serveringstider": "11:00—01:00 11:00—01:00 11:00—01:00", "latitude": 56.0514257, "longitude": 12.6878103 }, "geometry": { "type": "Point", "coordinates": [ 12.6878103, 56.0514257 ] } },
{ "type": "Feature", "properties": { "name": "Café Henry", "address": "Kungsgatan 11", "Serveringstider": "11:00—01:00 11:00—00:30 01:00—03:00 11:00—01:00", "latitude": 56.0476267, "longitude": 12.6889117 }, "geometry": { "type": "Point", "coordinates": [ 12.6889117, 56.0476267 ] } },
{ "type": "Feature", "properties": { "name": "Café Mezo/Firavîn", "address": "Södra Storgatan 3", "Serveringstider": "11:00—03:00 11:00—01:00 03:00—05:00", "latitude": 56.046926, "longitude": 12.6963894 }, "geometry": { "type": "Point", "coordinates": [ 12.6963894, 56.046926 ] } },
{ "type": "Feature", "properties": { "name": "Café Ray", "address": "Södra Storgatan 39 A", "Serveringstider": "10:00—00:00", "latitude": 56.0447095, "longitude": 12.6999359 }, "geometry": { "type": "Point", "coordinates": [ 12.6999359, 56.0447095 ] } },
{ "type": "Feature", "properties": { "name": "Cafe Viva", "address": "Södra Storgatan 6", "Serveringstider": "11:00—01:00 11:00—00:30 11:00—01:00", "latitude": 56.0461048, "longitude": 12.6974191 }, "geometry": { "type": "Point", "coordinates": [ 12.6974191, 56.0461048 ] } },
{ "type": "Feature", "properties": { "name": "Centralen", "address": "Kungstorget 8", "Serveringstider": "11:00—01:00 11:00—01:00", "latitude": 56.0442787, "longitude": 12.6944725 }, "geometry": { "type": "Point", "coordinates": [ 12.6944725, 56.0442787 ] } },
{ "type": "Feature", "properties": { "name": "Chateau Foret", "address": "Södra Storgatan 19", "Serveringstider": "11:00—01:00 11:00—00:00", "latitude": 56.0459091, "longitude": 12.698658 }, "geometry": { "type": "Point", "coordinates": [ 12.698658, 56.0459091 ] } },
{ "type": "Feature", "properties": { "name": "Chattanoga", "address": "Stattena Centrum", "Serveringstider": "11:00—01:00", "latitude": 56.05738, "longitude": 12.7013185 }, "geometry": { "type": "Point", "coordinates": [ 12.7013185, 56.05738 ] } },
{ "type": "Feature", "properties": { "name": "Chiang Mai Thai Kitchen", "address": "Bruksgatan 29", "Serveringstider": "11:00—01:00 11:00—23:00", "latitude": 56.0438484, "longitude": 12.6982532 }, "geometry": { "type": "Point", "coordinates": [ 12.6982532, 56.0438484 ] } },
{ "type": "Feature", "properties": { "name": "Chili Mexican Grill", "address": "Kungstorget/Järnvägsgatan 2", "Serveringstider": "11:30—01:00", "latitude": 56.0444, "longitude": 12.6929 }, "geometry": { "type": "Point", "coordinates": [ 12.6929, 56.0444 ] } },
{ "type": "Feature", "properties": { "name": "China Town", "address": "Sundstorget 5", "Serveringstider": "11:00—01:00 11:00—23:00", "latitude": 56.0486282, "longitude": 12.6898302 }, "geometry": { "type": "Point", "coordinates": [ 12.6898302, 56.0486282 ] } },
{ "type": "Feature", "properties": { "name": "Clarion Hotel Sea U", "address": "Kungsgatan 1", "Serveringstider": "11:00—03:00 11:00—01:00 11:00—01:00", "latitude": 56.046121, "longitude": 12.68985 }, "geometry": { "type": "Point", "coordinates": [ 12.68985, 56.046121 ] } },
{ "type": "Feature", "properties": { "name": "Curry Nam Nam", "address": "Bruksgatan 10", "Serveringstider": "11:00—24:00 11:00—00:00", "latitude": 56.0454517, "longitude": 12.69599 }, "geometry": { "type": "Point", "coordinates": [ 12.69599, 56.0454517 ] } },
{ "type": "Feature", "properties": { "name": "Diné Burgers", "address": "Södra Kyrkogatan 12", "Serveringstider": "11:00—01:00 11:00—01:00 11:00—00:30", "latitude": 56.0458926, "longitude": 12.6962423 }, "geometry": { "type": "Point", "coordinates": [ 12.6962423, 56.0458926 ] } },
{ "type": "Feature", "properties": { "name": "Diplomat & Bar", "address": "Sundstorget 3", "Serveringstider": "11:00—00:30 11:00—01:00", "latitude": 56.0484374, "longitude": 12.6894736 }, "geometry": { "type": "Point", "coordinates": [ 12.6894736, 56.0484374 ] } },
{ "type": "Feature", "properties": { "name": "Drottninggatan 35", "address": "Drottninggatan 35", "Serveringstider": "11:00—01:00", "latitude": 56.0522112, "longitude": 12.686655 }, "geometry": { "type": "Point", "coordinates": [ 12.686655, 56.0522112 ] } },
{ "type": "Feature", "properties": { "name": "Elite Hotel Marina Plaza", "address": "Kungstorget 6", "Serveringstider": "11:00—03:00 11:00—01:00 11:00—01:00", "latitude": 56.044346, "longitude": 12.6925982 }, "geometry": { "type": "Point", "coordinates": [ 12.6925982, 56.044346 ] } },
{ "type": "Feature", "properties": { "name": "Elite Hotel Mollberg", "address": "Stortorget 18", "Serveringstider": "11:00—03:00 11:00—01:00 11:00—01:00 11:00—01:00", "latitude": 56.0469692, "longitude": 12.6957707 }, "geometry": { "type": "Point", "coordinates": [ 12.6957707, 56.0469692 ] } },
{ "type": "Feature", "properties": { "name": "Ett litet Makeri", "address": "Kungsgatan 12", "Serveringstider": "11:00—24:00 11:00—24:00", "latitude": 56.0472252, "longitude": 12.6900931 }, "geometry": { "type": "Point", "coordinates": [ 12.6900931, 56.0472252 ] } },
{ "type": "Feature", "properties": { "name": "Fabriken Helsingborg", "address": "Rönnowsgatan 8 C", "Serveringstider": "11:00—01:00", "latitude": 56.0376489, "longitude": 12.6992631 }, "geometry": { "type": "Point", "coordinates": [ 12.6992631, 56.0376489 ] } },
{ "type": "Feature", "properties": { "name": "Fahlmans", "address": "Stortorget 11", "Serveringstider": "11:00—01:00 11:00—22:00", "latitude": 56.0468848, "longitude": 12.6946071 }, "geometry": { "type": "Point", "coordinates": [ 12.6946071, 56.0468848 ] } },
{ "type": "Feature", "properties": { "name": "First Camp Råå Vallar", "address": "Kustgatan", "Serveringstider": "11:00—01:00 11:00—01:00", "latitude": 55.9984167, "longitude": 12.7382197 }, "geometry": { "type": "Point", "coordinates": [ 12.7382197, 55.9984167 ] } },
{ "type": "Feature", "properties": { "name": "Fisk och skaldjur by Anette", "address": "Marknadsvägen 9", "Serveringstider": "11:00—01:00 11:00—01:00 11:00—01:00", "latitude": 56.09153, "longitude": 12.75698 }, "geometry": { "type": "Point", "coordinates": [ 12.75698, 56.09153 ] } },
{ "type": "Feature", "properties": { "name": "Fredriksborgs Gård", "address": "Pålstorpsvägen 115", "Serveringstider": "11:00—01:00 01:00—02:00", "latitude": 55.9947965, "longitude": 12.7757672 }, "geometry": { "type": "Point", "coordinates": [ 12.7757672, 55.9947965 ] } },
{ "type": "Feature", "properties": { "name": "Fria Bad & Bar", "address": "Drottninggatan 95", "Serveringstider": "11:00—01:00 11:00—02:00 11:00—01:00 11:00—02:00", "latitude": 56.0583527, "longitude": 12.6821787 }, "geometry": { "type": "Point", "coordinates": [ 12.6821787, 56.0583527 ] } },
{ "type": "Feature", "properties": { "name": "Frimurarlogernas Restaurant", "address": "Stortorget 4", "Serveringstider": "12:00—01:00", "latitude": 56.0461923, "longitude": 12.6940472 }, "geometry": { "type": "Point", "coordinates": [ 12.6940472, 56.0461923 ] } },
{ "type": "Feature", "properties": { "name": "G o Co", "address": "Marknadsvägen 9", "Serveringstider": "11:00—01:00", "latitude": 56.09153, "longitude": 12.75698 }, "geometry": { "type": "Point", "coordinates": [ 12.75698, 56.09153 ] } },
{ "type": "Feature", "properties": { "name": "Gents", "address": "Lilla Torggatan 3", "Serveringstider": "10:00—01:00", "latitude": 56.0465888, "longitude": 12.6952756 }, "geometry": { "type": "Point", "coordinates": [ 12.6952756, 56.0465888 ] } },
{ "type": "Feature", "properties": { "name": "Goa Humlan", "address": "Malmögatan 2", "Serveringstider": "11:00—01:00 11:00—00:30", "latitude": 56.0436287, "longitude": 12.7099744 }, "geometry": { "type": "Point", "coordinates": [ 12.7099744, 56.0436287 ] } },
{ "type": "Feature", "properties": { "name": "Goa Punkten", "address": "Gasverksgatan 35", "Serveringstider": "11:00—03:00 11:00—00:30", "latitude": 56.0407704, "longitude": 12.7049516 }, "geometry": { "type": "Point", "coordinates": [ 12.7049516, 56.0407704 ] } },
{ "type": "Feature", "properties": { "name": "Good Morning + Helsingborg", "address": "Gustav Adolfs Gata 47", "Serveringstider": "11:00—01:00 11:00—03:00 11:00—01:00", "latitude": 56.0358229, "longitude": 12.7119431 }, "geometry": { "type": "Point", "coordinates": [ 12.7119431, 56.0358229 ] } },
{ "type": "Feature", "properties": { "name": "Grekiska Kolgrillen", "address": "Väla Restaurangtorget, Marknadsv 9", "Serveringstider": "11:00—01:00", "latitude": 56.0921, "longitude": 12.7568 }, "geometry": { "type": "Point", "coordinates": [ 12.7568, 56.0921 ] } },
{ "type": "Feature", "properties": { "name": "Grytan Restaurang", "address": "Industrigatan 70", "Serveringstider": "11:00—01:00", "latitude": 56.0130617, "longitude": 12.7175101 }, "geometry": { "type": "Point", "coordinates": [ 12.7175101, 56.0130617 ] } },
{ "type": "Feature", "properties": { "name": "Grytan Restaurang - Rya golfklubb", "address": "Rya Golfbanevägen 20", "Serveringstider": "10:00—01:00", "latitude": 55.976, "longitude": 12.7565 }, "geometry": { "type": "Point", "coordinates": [ 12.7565, 55.976 ] } },
{ "type": "Feature", "properties": { "name": "Haket Restaurang", "address": "Kullagatan 55", "Serveringstider": "11:00—01:00 11:00—00:30", "latitude": 56.0497027, "longitude": 12.6908346 }, "geometry": { "type": "Point", "coordinates": [ 12.6908346, 56.0497027 ] } },
{ "type": "Feature", "properties": { "name": "Hamnkrogen", "address": "Hamntorget 2", "Serveringstider": "11:00—02:00 11:00—01:00", "latitude": 56.0456253, "longitude": 12.692419 }, "geometry": { "type": "Point", "coordinates": [ 12.692419, 56.0456253 ] } },
{ "type": "Feature", "properties": { "name": "Happy Asian Food Restaurang", "address": "Ginstgatan 3", "Serveringstider": "11:00—22:00", "latitude": 56.107559, "longitude": 12.7486282 }, "geometry": { "type": "Point", "coordinates": [ 12.7486282, 56.107559 ] } },
{ "type": "Feature", "properties": { "name": "Havslyckan", "address": "Parapeten 1", "Serveringstider": "11:00—01:00 11:00—01:00 01:00—03:00 11:00—01:00 11:00—01:00", "latitude": 56.0457685, "longitude": 12.6862622 }, "geometry": { "type": "Point", "coordinates": [ 12.6862622, 56.0457685 ] } },
{ "type": "Feature", "properties": { "name": "Helsingborg Arena Restaurang", "address": "Mellersta Stenbocksgatan 14", "Serveringstider": "11:00—01:00 11:00—00:00", "latitude": 56.0529038, "longitude": 12.7047386 }, "geometry": { "type": "Point", "coordinates": [ 12.7047386, 56.0529038 ] } },
{ "type": "Feature", "properties": { "name": "Helsingborgen", "address": "Furutorpsgatan 47", "Serveringstider": "11:00—03:00 11:00—00:30", "latitude": 56.0382314, "longitude": 12.707324 }, "geometry": { "type": "Point", "coordinates": [ 12.707324, 56.0382314 ] } },
{ "type": "Feature", "properties": { "name": "Helsingborgs stadsteater", "address": "Karl Johans gata 1", "Serveringstider": "11:00—01:00 11:00—02:00 11:00—00:00 11:00—00:00 12:00—00:00", "latitude": 56.0509702, "longitude": 12.6878945 }, "geometry": { "type": "Point", "coordinates": [ 12.6878945, 56.0509702 ] } },
{ "type": "Feature", "properties": { "name": "Helsingörskajen 10", "address": "Helsingörskajen 10", "Serveringstider": "11:00—01:00 11:00—00:00", "latitude": 56.046644, "longitude": 12.6888562 }, "geometry": { "type": "Point", "coordinates": [ 12.6888562, 56.046644 ] } },
{ "type": "Feature", "properties": { "name": "Home Hotel Grand Helsingborg", "address": "Stortorget 8-12", "Serveringstider": "11:00—03:00 11:00—01:00 11:00—01:00", "latitude": 56.0464793, "longitude": 12.6945916 }, "geometry": { "type": "Point", "coordinates": [ 12.6945916, 56.0464793 ] } },
{ "type": "Feature", "properties": { "name": "Hotel Linnéa", "address": "Prästgatan 4", "Serveringstider": "10:00—00:00 07:00—10:00", "latitude": 56.0438761, "longitude": 12.6962745 }, "geometry": { "type": "Point", "coordinates": [ 12.6962745, 56.0438761 ] } },
{ "type": "Feature", "properties": { "name": "Hotell Stadsparken", "address": "Bruksgatan 40", "Serveringstider": "12:00—00:00 12:00—22:00", "latitude": 56.0435313, "longitude": 12.6974396 }, "geometry": { "type": "Point", "coordinates": [ 12.6974396, 56.0435313 ] } },
{ "type": "Feature", "properties": { "name": "Hygge Restaurang & Bar", "address": "Sundstorget 5", "Serveringstider": "11:00—01:00 11:00—00:30 00:30—01:00", "latitude": 56.0486282, "longitude": 12.6898302 }, "geometry": { "type": "Point", "coordinates": [ 12.6898302, 56.0486282 ] } },
{ "type": "Feature", "properties": { "name": "Hålan", "address": "Billeplatsen 1", "Serveringstider": "11:00—03:00 11:00—00:30", "latitude": 56.0467484, "longitude": 12.6969268 }, "geometry": { "type": "Point", "coordinates": [ 12.6969268, 56.0467484 ] } },
{ "type": "Feature", "properties": { "name": "Hörnet", "address": "Roskildegatan 2", "Serveringstider": "11:00—01:00 11:00—00:30 11:00—01:00", "latitude": 56.0490938, "longitude": 12.6889787 }, "geometry": { "type": "Point", "coordinates": [ 12.6889787, 56.0490938 ] } },
{ "type": "Feature", "properties": { "name": "Icha Mochi", "address": "Hjälmhultsgatan 8", "Serveringstider": "11:00—23:00 11:00—23:00", "latitude": 56.0558, "longitude": 12.6967 }, "geometry": { "type": "Point", "coordinates": [ 12.6967, 56.0558 ] } },
{ "type": "Feature", "properties": { "name": "Icha Mochi City AB", "address": "Sundstorget 1-3", "Serveringstider": "11:00—03:00 11:00—01:00 11:00—01:00", "latitude": 56.048162, "longitude": 12.690069 }, "geometry": { "type": "Point", "coordinates": [ 12.690069, 56.048162 ] } },
{ "type": "Feature", "properties": { "name": "Il Mio Ristorante", "address": "Kungsgatan 2", "Serveringstider": "11:00—23:00 12:00—01:00 11:00—23:00 12:00—00:30", "latitude": 56.0459869, "longitude": 12.690979 }, "geometry": { "type": "Point", "coordinates": [ 12.690979, 56.0459869 ] } },
{ "type": "Feature", "properties": { "name": "Indian Zayka", "address": "Bruksgatan 25", "Serveringstider": "11:00—00:00 11:00—00:00", "latitude": 56.0441753, "longitude": 12.6971699 }, "geometry": { "type": "Point", "coordinates": [ 12.6971699, 56.0441753 ] } },
{ "type": "Feature", "properties": { "name": "Italy Espresso House", "address": "Bruksgatan 30", "Serveringstider": "11:00—22:00 11:00—00:00", "latitude": 56.0444362, "longitude": 12.6967462 }, "geometry": { "type": "Point", "coordinates": [ 12.6967462, 56.0444362 ] } },
{ "type": "Feature", "properties": { "name": "K- Gränd", "address": "Kolmätaregränden 7", "Serveringstider": "11:00—01:00 11:00—00:30", "latitude": 56.0475332, "longitude": 12.6931672 }, "geometry": { "type": "Point", "coordinates": [ 12.6931672, 56.0475332 ] } },
{ "type": "Feature", "properties": { "name": "Kajgatan 1", "address": "Kajgatan 1", "Serveringstider": "11:00—01:00", "latitude": 55.9940333, "longitude": 12.7426962 }, "geometry": { "type": "Point", "coordinates": [ 12.7426962, 55.9940333 ] } },
{ "type": "Feature", "properties": { "name": "Khai & Mui", "address": "Kaliforniegatan 13", "Serveringstider": "11:00—01:00 11:00—00:30", "latitude": 56.0405206, "longitude": 12.6995777 }, "geometry": { "type": "Point", "coordinates": [ 12.6995777, 56.0405206 ] } },
{ "type": "Feature", "properties": { "name": "Kings Corner", "address": "Drottninggatan 1", "Serveringstider": "11:00—01:00 01:00—03:00 11:00—01:00", "latitude": 56.0462359, "longitude": 12.6921103 }, "geometry": { "type": "Point", "coordinates": [ 12.6921103, 56.0462359 ] } },
{ "type": "Feature", "properties": { "name": "Kol & Cocktails", "address": "Södra storgatan 11-13", "Serveringstider": "11:00—03:00 11:00—01:00 11:00—00:30", "latitude": 56.0458756, "longitude": 12.6978848 }, "geometry": { "type": "Point", "coordinates": [ 12.6978848, 56.0458756 ] } },
{ "type": "Feature", "properties": { "name": "Koreana", "address": "Bruksgatan 30", "Serveringstider": "10:30—23:00 10:30—23:00", "latitude": 56.0444362, "longitude": 12.6967462 }, "geometry": { "type": "Point", "coordinates": [ 12.6967462, 56.0444362 ] } },
{ "type": "Feature", "properties": { "name": "Krogen Wallåkra", "address": "Drejarestigen", "Serveringstider": "11:00—01:00 11:00—01:00", "latitude": 55.9619121, "longitude": 12.8536815 }, "geometry": { "type": "Point", "coordinates": [ 12.8536815, 55.9619121 ] } },
{ "type": "Feature", "properties": { "name": "Kryp In Café Vinbar", "address": "Mariagatan 4", "Serveringstider": "11:00—01:00 11:00—00:30", "latitude": 56.0463932, "longitude": 12.6955169 }, "geometry": { "type": "Point", "coordinates": [ 12.6955169, 56.0463932 ] } },
{ "type": "Feature", "properties": { "name": "Kök 74", "address": "Drottninggatan 74", "Serveringstider": "11:30—23:00", "latitude": 56.0508023, "longitude": 12.6890083 }, "geometry": { "type": "Point", "coordinates": [ 12.6890083, 56.0508023 ] } },
{ "type": "Feature", "properties": { "name": "Köket", "address": "Sjögatan 1", "Serveringstider": "15:00—00:00 15:00—00:00", "latitude": 56.0383619, "longitude": 12.6967228 }, "geometry": { "type": "Point", "coordinates": [ 12.6967228, 56.0383619 ] } },
{ "type": "Feature", "properties": { "name": "Laserdome", "address": "Södergatan 6", "Serveringstider": "11:00—01:00", "latitude": 56.0427782, "longitude": 12.7008816 }, "geometry": { "type": "Point", "coordinates": [ 12.7008816, 56.0427782 ] } },
{ "type": "Feature", "properties": { "name": "Lilla Bruket Tågaborg", "address": "Tågagatan 31", "Serveringstider": "10:00—23:00 10:00—22:00", "latitude": 56.0556483, "longitude": 12.690124 }, "geometry": { "type": "Point", "coordinates": [ 12.690124, 56.0556483 ] } },
{ "type": "Feature", "properties": { "name": "Lilla spanjoren", "address": "Kullagatan 60", "Serveringstider": "11:00—01:00", "latitude": 56.0500451, "longitude": 12.690363 }, "geometry": { "type": "Point", "coordinates": [ 12.690363, 56.0500451 ] } },
{ "type": "Feature", "properties": { "name": "Linnea & Basilika", "address": "Drottninggatan 17", "Serveringstider": "11:00—21:30 11:00—22:30", "latitude": 56.0492256, "longitude": 12.6899371 }, "geometry": { "type": "Point", "coordinates": [ 12.6899371, 56.0492256 ] } },
{ "type": "Feature", "properties": { "name": "Linnéaträdgården", "address": "Mariehällsvägen 100", "Serveringstider": "11:00—01:00 11:00—00:30 11:00—23:30 11:00—03:00", "latitude": 56.0830544, "longitude": 12.6855996 }, "geometry": { "type": "Point", "coordinates": [ 12.6855996, 56.0830544 ] } },
{ "type": "Feature", "properties": { "name": "Lion Bar Helsingborg", "address": "Bruksgatan 2", "Serveringstider": "11:00—03:00 14:00—00:30", "latitude": 56.0455686, "longitude": 12.6958775 }, "geometry": { "type": "Point", "coordinates": [ 12.6958775, 56.0455686 ] } },
{ "type": "Feature", "properties": { "name": "Loftet", "address": "Tursköpsvägen 154", "Serveringstider": "11:00—01:00 11:00—01:00", "latitude": 56.1324421, "longitude": 12.7146902 }, "geometry": { "type": "Point", "coordinates": [ 12.7146902, 56.1324421 ] } },
{ "type": "Feature", "properties": { "name": "Lottenlund Estate Events", "address": "Lottenlundsvägen 2", "Serveringstider": "11:00—23:00", "latitude": 56.1029178, "longitude": 12.7015027 }, "geometry": { "type": "Point", "coordinates": [ 12.7015027, 56.1029178 ] } },
{ "type": "Feature", "properties": { "name": "M/S Tilda", "address": "Kungstorget 6/ Öresund ( fartyg )", "Serveringstider": "11:00—03:00 11:00—01:00", "latitude": 56.04442, "longitude": 12.69293 }, "geometry": { "type": "Point", "coordinates": [ 12.69293, 56.04442 ] } },
{ "type": "Feature", "properties": { "name": "Machu Picchu Andres", "address": "Kajpromenaden 10", "Serveringstider": "11:00—01:00 11:00—00:30 11:00—01:00", "latitude": 56.0486787, "longitude": 12.6874159 }, "geometry": { "type": "Point", "coordinates": [ 12.6874159, 56.0486787 ] } },
{ "type": "Feature", "properties": { "name": "Madame Moustache", "address": "Norra Storgatan 9", "Serveringstider": "11:00—01:00 11:00—03:00 11:00—00:00 11:30—00:00", "latitude": 56.0477109, "longitude": 12.6946895 }, "geometry": { "type": "Point", "coordinates": [ 12.6946895, 56.0477109 ] } },
{ "type": "Feature", "properties": { "name": "Mammas Kök", "address": "Rååvägen 31", "Serveringstider": "11:00—01:00 11:00—00:30", "latitude": 55.9994519, "longitude": 12.7398447 }, "geometry": { "type": "Point", "coordinates": [ 12.7398447, 55.9994519 ] } },
{ "type": "Feature", "properties": { "name": "MAVI", "address": "Fågelsångsgatan 1", "Serveringstider": "12:00—01:00", "latitude": 56.0488387, "longitude": 12.6933788 }, "geometry": { "type": "Point", "coordinates": [ 12.6933788, 56.0488387 ] } },
{ "type": "Feature", "properties": { "name": "Miatorps Pizzeria & Restaurang", "address": "Planteringsvägen 111", "Serveringstider": "11:00—23:00", "latitude": 56.0186365, "longitude": 12.7213215 }, "geometry": { "type": "Point", "coordinates": [ 12.7213215, 56.0186365 ] } },
{ "type": "Feature", "properties": { "name": "Milano Restaurang & Pizzeria", "address": "Ättekullagatan 2", "Serveringstider": "11:00—01:00 11:00—01:00", "latitude": 56.0123996, "longitude": 12.7601209 }, "geometry": { "type": "Point", "coordinates": [ 12.7601209, 56.0123996 ] } },
{ "type": "Feature", "properties": { "name": "Mindpark", "address": "Rönnowsgatan 8 C", "Serveringstider": "11:30—01:00", "latitude": 56.0376489, "longitude": 12.6992631 }, "geometry": { "type": "Point", "coordinates": [ 12.6992631, 56.0376489 ] } },
{ "type": "Feature", "properties": { "name": "Miss Alice Krog & Butik", "address": "Aspavägen 418", "Serveringstider": "11:00—01:00", "latitude": 55.9545902, "longitude": 12.8330811 }, "geometry": { "type": "Point", "coordinates": [ 12.8330811, 55.9545902 ] } },
{ "type": "Feature", "properties": { "name": "Myzuki", "address": "Elinebergsplatsen 5", "Serveringstider": "11:00—23:00", "latitude": 56.0284505, "longitude": 12.72585 }, "geometry": { "type": "Point", "coordinates": [ 12.72585, 56.0284505 ] } },
{ "type": "Feature", "properties": { "name": "Mörarps Pizzeria", "address": "Bjuvsleden 11", "Serveringstider": "11:00—22:00", "latitude": 56.0577985, "longitude": 12.8787211 }, "geometry": { "type": "Point", "coordinates": [ 12.8787211, 56.0577985 ] } },
{ "type": "Feature", "properties": { "name": "Nabo Matbar", "address": "Drottninggatan 124", "Serveringstider": "11:00—01:00 11:00—00:30", "latitude": 56.0542557, "longitude": 12.6853901 }, "geometry": { "type": "Point", "coordinates": [ 12.6853901, 56.0542557 ] } },
{ "type": "Feature", "properties": { "name": "Nancy´s Steakhouse", "address": "Marknadsvägen 9", "Serveringstider": "11:00—01:00", "latitude": 56.09153, "longitude": 12.75698 }, "geometry": { "type": "Point", "coordinates": [ 12.75698, 56.09153 ] } },
{ "type": "Feature", "properties": { "name": "Nihon Sushi", "address": "Badhusgatan 6", "Serveringstider": "11:00—01:00 11:00—00:30", "latitude": 56.0468347, "longitude": 12.6915671 }, "geometry": { "type": "Point", "coordinates": [ 12.6915671, 56.0468347 ] } },
{ "type": "Feature", "properties": { "name": "NOC/H", "address": "Bruksgatan 2", "Serveringstider": "11:00—03:00 03:00—05:00", "latitude": 56.0455686, "longitude": 12.6958775 }, "geometry": { "type": "Point", "coordinates": [ 12.6958775, 56.0455686 ] } },
{ "type": "Feature", "properties": { "name": "Noise", "address": "S Kyrkogatan 7", "Serveringstider": "11:00—03:00 03:00—05:00", "latitude": 56.0458061, "longitude": 12.6954867 }, "geometry": { "type": "Point", "coordinates": [ 12.6954867, 56.0458061 ] } },
{ "type": "Feature", "properties": { "name": "Norrbro Kök & Bar", "address": "Norrbroplatsen 7", "Serveringstider": "11:00—01:00 11:00—00:30 11:00—01:00", "latitude": 56.056353, "longitude": 12.701454 }, "geometry": { "type": "Point", "coordinates": [ 12.701454, 56.056353 ] } },
{ "type": "Feature", "properties": { "name": "O´Learys Sportsbar", "address": "Rådhustorget 10", "Serveringstider": "11:00—03:00 11:00—02:00 11:00—01:00 11:00—00:30", "latitude": 56.0472308, "longitude": 12.6929205 }, "geometry": { "type": "Point", "coordinates": [ 12.6929205, 56.0472308 ] } },
{ "type": "Feature", "properties": { "name": "Odd Fellow", "address": "Trädgårdsgatan 13", "Serveringstider": "11:00—01:00", "latitude": 56.0436155, "longitude": 12.6984848 }, "geometry": { "type": "Point", "coordinates": [ 12.6984848, 56.0436155 ] } },
{ "type": "Feature", "properties": { "name": "Old Times", "address": "Bruksgatan 24", "Serveringstider": "11:00—01:00 11:00—00:30", "latitude": 56.0447269, "longitude": 12.6966653 }, "geometry": { "type": "Point", "coordinates": [ 12.6966653, 56.0447269 ] } },
{ "type": "Feature", "properties": { "name": "Olsons Skafferi", "address": "Mariagatan 6", "Serveringstider": "11:00—01:00 11:00—00:30 11:00—00:30 11:00—01:00", "latitude": 56.0462363, "longitude": 12.6956144 }, "geometry": { "type": "Point", "coordinates": [ 12.6956144, 56.0462363 ] } },
{ "type": "Feature", "properties": { "name": "Olympia", "address": "Filbornavägen 5", "Serveringstider": "11:00—01:00 11:00—01:00 11:00—01:00 11:00—01:00", "latitude": 56.049833, "longitude": 12.7077122 }, "geometry": { "type": "Point", "coordinates": [ 12.7077122, 56.049833 ] } },
{ "type": "Feature", "properties": { "name": "Olympia Bowling", "address": "Idrottens Hus", "Serveringstider": "11:00—03:00 11:00—01:00", "latitude": 56.0518042, "longitude": 12.7058555 }, "geometry": { "type": "Point", "coordinates": [ 12.7058555, 56.0518042 ] } },
{ "type": "Feature", "properties": { "name": "Olympia Restaurang & Pizzeria", "address": "Magnus Erikssons gata 8", "Serveringstider": "11:00—23:00", "latitude": 56.0487449, "longitude": 12.7047479 }, "geometry": { "type": "Point", "coordinates": [ 12.7047479, 56.0487449 ] } },
{ "type": "Feature", "properties": { "name": "Omakaze Sushi", "address": "Rydebäcks stationsgatan 51", "Serveringstider": "15:00—21:00 15:00—22:00", "latitude": 55.9663, "longitude": 12.7822 }, "geometry": { "type": "Point", "coordinates": [ 12.7822, 55.9663 ] } },
{ "type": "Feature", "properties": { "name": "OSS Kitchen", "address": "Himmelriksgränden 2", "Serveringstider": "11:00—22:00 11:00—01:00 11:00—00:00", "latitude": 56.0460079, "longitude": 12.6981386 }, "geometry": { "type": "Point", "coordinates": [ 12.6981386, 56.0460079 ] } },
{ "type": "Feature", "properties": { "name": "Oxhallen", "address": "Cindersgatan 4", "Serveringstider": "11:00—01:00 11:00—00:30", "latitude": 56.0323687, "longitude": 12.7063022 }, "geometry": { "type": "Point", "coordinates": [ 12.7063022, 56.0323687 ] } },
{ "type": "Feature", "properties": { "name": "Parapeten", "address": "Hamnpiren, Norra Hamnen", "Serveringstider": "11:00—01:00 11:00—03:00", "latitude": 56.0446, "longitude": 12.6863 }, "geometry": { "type": "Point", "coordinates": [ 12.6863, 56.0446 ] } },
{ "type": "Feature", "properties": { "name": "Pausa hos oss - Fredriksdal", "address": "Oscar trapps väg 10", "Serveringstider": "11:00—16:00 16:00—20:00", "latitude": 56.0571616, "longitude": 12.7127028 }, "geometry": { "type": "Point", "coordinates": [ 12.7127028, 56.0571616 ] } },
{ "type": "Feature", "properties": { "name": "Pellegrino", "address": "Norra Storgatan 15", "Serveringstider": "11:00—01:00 11:00—00:30", "latitude": 56.0482948, "longitude": 12.6938222 }, "geometry": { "type": "Point", "coordinates": [ 12.6938222, 56.0482948 ] } },
{ "type": "Feature", "properties": { "name": "Phuun Thai", "address": "Hamntorget 3", "Serveringstider": "11:00—00:00 11:00—00:00", "latitude": 56.0461211, "longitude": 12.6915319 }, "geometry": { "type": "Point", "coordinates": [ 12.6915319, 56.0461211 ] } },
{ "type": "Feature", "properties": { "name": "Phuun Thai Heden", "address": "Planteringsvägen 112", "Serveringstider": "11:00—21:00", "latitude": 56.0156329, "longitude": 12.7226451 }, "geometry": { "type": "Point", "coordinates": [ 12.7226451, 56.0156329 ] } },
{ "type": "Feature", "properties": { "name": "Pikado", "address": "Landskronavägen 1-3", "Serveringstider": "11:00—03:00", "latitude": 56.0014655, "longitude": 12.7423862 }, "geometry": { "type": "Point", "coordinates": [ 12.7423862, 56.0014655 ] } },
{ "type": "Feature", "properties": { "name": "Pinchos Söder", "address": "Södergatan 32", "Serveringstider": "11:00—01:00", "latitude": 56.0402928, "longitude": 12.7013881 }, "geometry": { "type": "Point", "coordinates": [ 12.7013881, 56.0402928 ] } },
{ "type": "Feature", "properties": { "name": "Pitcher´s", "address": "Södergatan 32", "Serveringstider": "11:00—03:00 11:00—00:30", "latitude": 56.0402928, "longitude": 12.7013881 }, "geometry": { "type": "Point", "coordinates": [ 12.7013881, 56.0402928 ] } },
{ "type": "Feature", "properties": { "name": "Primo Il Forno", "address": "Tågagatan 74", "Serveringstider": "11:00—00:00 11:00—00:00", "latitude": 56.0607382, "longitude": 12.6957849 }, "geometry": { "type": "Point", "coordinates": [ 12.6957849, 56.0607382 ] } },
{ "type": "Feature", "properties": { "name": "Pronto i Påarp", "address": "Ekebergavägen 3", "Serveringstider": "11:00—00:00 11:00—00:00", "latitude": 56.0297206, "longitude": 12.813673 }, "geometry": { "type": "Point", "coordinates": [ 12.813673, 56.0297206 ] } },
{ "type": "Feature", "properties": { "name": "Pub Nessie", "address": "Möllegränden 3", "Serveringstider": "11:00—01:00 11:00—00:30", "latitude": 56.0449809, "longitude": 12.6954615 }, "geometry": { "type": "Point", "coordinates": [ 12.6954615, 56.0449809 ] } },
{ "type": "Feature", "properties": { "name": "På Piren", "address": "Hamnplan", "Serveringstider": "11:00—01:00 11:00—01:00 11:00—01:00 11:00—01:00", "latitude": 55.99517, "longitude": 12.74547 }, "geometry": { "type": "Point", "coordinates": [ 12.74547, 55.99517 ] } },
{ "type": "Feature", "properties": { "name": "Påarps Pizzeria", "address": "Lokföraregatan 24", "Serveringstider": "11:00—00:30", "latitude": 56.0289684, "longitude": 12.8148755 }, "geometry": { "type": "Point", "coordinates": [ 12.8148755, 56.0289684 ] } },
{ "type": "Feature", "properties": { "name": "Pålsjö Krog", "address": "Drottninggatan 151", "Serveringstider": "11:00—01:00 11:00—01:00 11:00—01:00", "latitude": 56.0644841, "longitude": 12.6781381 }, "geometry": { "type": "Point", "coordinates": [ 12.6781381, 56.0644841 ] } },
{ "type": "Feature", "properties": { "name": "Pålsjöpaviljongen", "address": "Pålsjöpaviljongen 2", "Serveringstider": "11:00—01:00 11:00—01:00", "latitude": 56.069861, "longitude": 12.685528 }, "geometry": { "type": "Point", "coordinates": [ 12.685528, 56.069861 ] } },
{ "type": "Feature", "properties": { "name": "Radisson Blu Hotel Metropol", "address": "Carl Krooks gata 16", "Serveringstider": "11:00—03:00 11:00—00:30 11:00—01:00", "latitude": 56.0407868, "longitude": 12.7001613 }, "geometry": { "type": "Point", "coordinates": [ 12.7001613, 56.0407868 ] } },
{ "type": "Feature", "properties": { "name": "Regio", "address": "Drottninggatan 100", "Serveringstider": "11:00—01:00 11:00—01:00", "latitude": 56.0523377, "longitude": 12.6870299 }, "geometry": { "type": "Point", "coordinates": [ 12.6870299, 56.0523377 ] } },
{ "type": "Feature", "properties": { "name": "Restaurang & Pizzeria i Bårslöv", "address": "Snödroppegatan 1", "Serveringstider": "12:00—22:00", "latitude": 56.0086925, "longitude": 12.8089449 }, "geometry": { "type": "Point", "coordinates": [ 12.8089449, 56.0086925 ] } },
{ "type": "Feature", "properties": { "name": "Restaurang Ankaret Råå", "address": "Västindiegatan 22", "Serveringstider": "12:00—00:00 12:00—00:00", "latitude": 55.9915876, "longitude": 12.7458053 }, "geometry": { "type": "Point", "coordinates": [ 12.7458053, 55.9915876 ] } },
{ "type": "Feature", "properties": { "name": "Restaurang Babou", "address": "Kajpromenaden 21", "Serveringstider": "11:00—01:00 11:00—00:30", "latitude": 56.0507472, "longitude": 12.6853024 }, "geometry": { "type": "Point", "coordinates": [ 12.6853024, 56.0507472 ] } },
{ "type": "Feature", "properties": { "name": "Restaurang Créo", "address": "Bruksgatan 18", "Serveringstider": "11:30—02:00 11:00—02:00", "latitude": 56.0451333, "longitude": 12.6962882 }, "geometry": { "type": "Point", "coordinates": [ 12.6962882, 56.0451333 ] } },
{ "type": "Feature", "properties": { "name": "Restaurang Edelweiss", "address": "Drottninggatan 15", "Serveringstider": "11:00—01:00 11:00—01:00 11:00—00:30", "latitude": 56.0489268, "longitude": 12.6896722 }, "geometry": { "type": "Point", "coordinates": [ 12.6896722, 56.0489268 ] } },
{ "type": "Feature", "properties": { "name": "Restaurang Le Cardinal", "address": "Södra Kyrkogatan 9", "Serveringstider": "11:00—03:00 11:00—04:00 11:00—05:00", "latitude": 56.045938, "longitude": 12.6956085 }, "geometry": { "type": "Point", "coordinates": [ 12.6956085, 56.045938 ] } },
{ "type": "Feature", "properties": { "name": "Restaurang Marconi", "address": "Drottninggatan 72", "Serveringstider": "11:00—22:00 11:00—22:00", "latitude": 56.0506858, "longitude": 12.689142 }, "geometry": { "type": "Point", "coordinates": [ 12.689142, 56.0506858 ] } },
{ "type": "Feature", "properties": { "name": "Restaurang Pub Ro", "address": "Båthusgatan 11", "Serveringstider": "11:00—01:00 11:00—00:30", "latitude": 56.0506188, "longitude": 12.6847563 }, "geometry": { "type": "Point", "coordinates": [ 12.6847563, 56.0506188 ] } },
{ "type": "Feature", "properties": { "name": "Restaurang Yoko", "address": "Järnvägsgatan 3", "Serveringstider": "11:00—03:00 11:00—01:00 11:00—01:00 03:00—05:00", "latitude": 56.0458151, "longitude": 12.6938086 }, "geometry": { "type": "Point", "coordinates": [ 12.6938086, 56.0458151 ] } },
{ "type": "Feature", "properties": { "name": "Restaurangskolan", "address": "Hamnpaviljongen, Parapeten", "Serveringstider": "11:00—15:00 11:00—01:00", "latitude": 56.0446, "longitude": 12.6863 }, "geometry": { "type": "Point", "coordinates": [ 12.6863, 56.0446 ] } },
{ "type": "Feature", "properties": { "name": "Rocco´s Wine & Dine", "address": "Båthusgatan 15", "Serveringstider": "11:00—01:00 11:00—00:00 11:00—00:00", "latitude": 56.0500244, "longitude": 12.6841353 }, "geometry": { "type": "Point", "coordinates": [ 12.6841353, 56.0500244 ] } },
{ "type": "Feature", "properties": { "name": "Rodis Pizzeria", "address": "Blåkullagatan 3", "Serveringstider": "11:00—01:00 11:00—00:30", "latitude": 56.0622847, "longitude": 12.7275148 }, "geometry": { "type": "Point", "coordinates": [ 12.7275148, 56.0622847 ] } },
{ "type": "Feature", "properties": { "name": "Rosendal Slott", "address": "Rosendal 107", "Serveringstider": "11:00—01:00 11:00—00:30", "latitude": 56.0903302, "longitude": 12.8300175 }, "geometry": { "type": "Point", "coordinates": [ 12.8300175, 56.0903302 ] } },
{ "type": "Feature", "properties": { "name": "Rosengårdens pizzeria & restaurang", "address": "Skaragatan 90", "Serveringstider": "11:00—00:30", "latitude": 56.0501817, "longitude": 12.7271419 }, "geometry": { "type": "Point", "coordinates": [ 12.7271419, 56.0501817 ] } },
{ "type": "Feature", "properties": { "name": "Roys Fisk o Servering", "address": "Kajpromenaden 21", "Serveringstider": "11:00—01:00 11:00—00:30", "latitude": 56.0507472, "longitude": 12.6853024 }, "geometry": { "type": "Point", "coordinates": [ 12.6853024, 56.0507472 ] } },
{ "type": "Feature", "properties": { "name": "Rydebäcks Pizzeria", "address": "Frösgatan 7", "Serveringstider": "11:00—01:00 11:00—00:30", "latitude": 55.9663, "longitude": 12.775 }, "geometry": { "type": "Point", "coordinates": [ 12.775, 55.9663 ] } },
{ "type": "Feature", "properties": { "name": "Röda Kvarn", "address": "Karlsgatan 7", "Serveringstider": "16:30—22:00 11:00—01:00", "latitude": 56.045201, "longitude": 12.6977553 }, "geometry": { "type": "Point", "coordinates": [ 12.6977553, 56.045201 ] } },
{ "type": "Feature", "properties": { "name": "Sams Bar", "address": "Carl Krooks gata 50", "Serveringstider": "11:00—03:00 11:00—00:30", "latitude": 56.0373522, "longitude": 12.7024143 }, "geometry": { "type": "Point", "coordinates": [ 12.7024143, 56.0373522 ] } },
{ "type": "Feature", "properties": { "name": "Scandic Go Gasverksgatan 11", "address": "Gasverksgatan 11", "Serveringstider": "11:00—01:00", "latitude": 56.041043, "longitude": 12.6996601 }, "geometry": { "type": "Point", "coordinates": [ 12.6996601, 56.041043 ] } },
{ "type": "Feature", "properties": { "name": "Scandic Hotel", "address": "Florettgatan 41", "Serveringstider": "11:00—01:00 11:00—01:00", "latitude": 56.0778544, "longitude": 12.7295239 }, "geometry": { "type": "Point", "coordinates": [ 12.7295239, 56.0778544 ] } },
{ "type": "Feature", "properties": { "name": "Scandic Oceanhamnen", "address": "Bröderna Pihls gränd 2", "Serveringstider": "11:00—01:00 11:00—01:00 11:00—00:30", "latitude": 56.042283, "longitude": 12.6898271 }, "geometry": { "type": "Point", "coordinates": [ 12.6898271, 56.042283 ] } },
{ "type": "Feature", "properties": { "name": "Shark", "address": "Södra storgatan 16", "Serveringstider": "11:00—22:00", "latitude": 56.0454706, "longitude": 12.6986322 }, "geometry": { "type": "Point", "coordinates": [ 12.6986322, 56.0454706 ] } },
{ "type": "Feature", "properties": { "name": "Sillen & Makrillen", "address": "Norra Gröningen 1", "Serveringstider": "11:00—02:00 11:00—01:00 02:00—03:00", "latitude": 56.0557, "longitude": 12.6827 }, "geometry": { "type": "Point", "coordinates": [ 12.6827, 56.0557 ] } },
{ "type": "Feature", "properties": { "name": "Skonaren Nina", "address": "Kajpromenaden", "Serveringstider": "12:00—01:00", "latitude": 56.0493296, "longitude": 12.6868078 }, "geometry": { "type": "Point", "coordinates": [ 12.6868078, 56.0493296 ] } },
{ "type": "Feature", "properties": { "name": "Small Britain", "address": "Rosendals Slott - Kalvstallet, Rosendals", "Serveringstider": "11:00—01:00 11:00—01:00", "latitude": 56.0904, "longitude": 12.8298 }, "geometry": { "type": "Point", "coordinates": [ 12.8298, 56.0904 ] } },
{ "type": "Feature", "properties": { "name": "Sofiero Slott", "address": "Sofierovägen 31", "Serveringstider": "11:00—02:00 11:00—01:00 11:00—02:00", "latitude": 56.0776126, "longitude": 12.6646167 }, "geometry": { "type": "Point", "coordinates": [ 12.6646167, 56.0776126 ] } },
{ "type": "Feature", "properties": { "name": "Sofiero slottsrestaurang Orangeriet", "address": "Sofierovägen 131", "Serveringstider": "11:00—02:00 11:00—01:00 11:00—01:00", "latitude": 56.0839018, "longitude": 12.6596728 }, "geometry": { "type": "Point", "coordinates": [ 12.6596728, 56.0839018 ] } },
{ "type": "Feature", "properties": { "name": "Soho no.5", "address": "Drottninghögsvägen 5", "Serveringstider": "11:00—01:00", "latitude": 56.0671239, "longitude": 12.7235458 }, "geometry": { "type": "Point", "coordinates": [ 12.7235458, 56.0671239 ] } },
{ "type": "Feature", "properties": { "name": "Sorella", "address": "Drottninggatan 88", "Serveringstider": "11:00—22:30 11:00—21:30", "latitude": 56.0516504, "longitude": 12.6881329 }, "geometry": { "type": "Point", "coordinates": [ 12.6881329, 56.0516504 ] } },
{ "type": "Feature", "properties": { "name": "Spectrum", "address": "Kullagatan 47", "Serveringstider": "12:00—01:00 12:00—23:30 11:00—01:00", "latitude": 56.0493337, "longitude": 12.6911833 }, "geometry": { "type": "Point", "coordinates": [ 12.6911833, 56.0493337 ] } },
{ "type": "Feature", "properties": { "name": "Spelpalatset", "address": "Gasverksgatan 22", "Serveringstider": "11:00—01:00", "latitude": 56.0409634, "longitude": 12.7024402 }, "geometry": { "type": "Point", "coordinates": [ 12.7024402, 56.0409634 ] } },
{ "type": "Feature", "properties": { "name": "Strandhuset", "address": "Drottninggatan 251", "Serveringstider": "11:30—01:00 12:00—00:30 11:00—01:00", "latitude": 56.0724385, "longitude": 12.6685304 }, "geometry": { "type": "Point", "coordinates": [ 12.6685304, 56.0724385 ] } },
{ "type": "Feature", "properties": { "name": "Stubinen", "address": "Drottninggatan 30", "Serveringstider": "11:00—01:00 11:00—00:30", "latitude": 56.0482727, "longitude": 12.691432 }, "geometry": { "type": "Point", "coordinates": [ 12.691432, 56.0482727 ] } },
{ "type": "Feature", "properties": { "name": "Sundsgårdens Folkhögskola", "address": "Örbyvägen 10", "Serveringstider": "11:00—01:00 11:00—01:00", "latitude": 55.9873601, "longitude": 12.7579859 }, "geometry": { "type": "Point", "coordinates": [ 12.7579859, 55.9873601 ] } },
{ "type": "Feature", "properties": { "name": "Suriyo Thai", "address": "Pålsjögatan 8", "Serveringstider": "11:00—21:00 11:00—21:30", "latitude": 56.0555756, "longitude": 12.6945739 }, "geometry": { "type": "Point", "coordinates": [ 12.6945739, 56.0555756 ] } },
{ "type": "Feature", "properties": { "name": "Taco Bar Helsingborg", "address": "Södergatan 11", "Serveringstider": "11:00—01:00 11:00—00:30", "latitude": 56.0411335, "longitude": 12.7020106 }, "geometry": { "type": "Point", "coordinates": [ 12.7020106, 56.0411335 ] } },
{ "type": "Feature", "properties": { "name": "Taj Mahal", "address": "Drottninggatan 24", "Serveringstider": "11:00—01:00 11:00—00:00", "latitude": 56.0479961, "longitude": 12.6916296 }, "geometry": { "type": "Point", "coordinates": [ 12.6916296, 56.0479961 ] } },
{ "type": "Feature", "properties": { "name": "Takami Sushi", "address": "Södra Kyrkogatan 20", "Serveringstider": "11:00—23:00 11:00—22:00", "latitude": 56.0460186, "longitude": 12.6967172 }, "geometry": { "type": "Point", "coordinates": [ 12.6967172, 56.0460186 ] } },
{ "type": "Feature", "properties": { "name": "Tapasbar La Venta", "address": "Mariagatan 8", "Serveringstider": "11:00—01:00 11:00—00:00", "latitude": 56.0461108, "longitude": 12.6955139 }, "geometry": { "type": "Point", "coordinates": [ 12.6955139, 56.0461108 ] } },
{ "type": "Feature", "properties": { "name": "Telegrafen", "address": "Norra Storgatan 14", "Serveringstider": "11:00—02:00 11:00—23:00", "latitude": 56.0482015, "longitude": 12.6942519 }, "geometry": { "type": "Point", "coordinates": [ 12.6942519, 56.0482015 ] } },
{ "type": "Feature", "properties": { "name": "Teo´s Kök & Bar", "address": "Södergatan 60", "Serveringstider": "11:00—01:00 11:00—00:30", "latitude": 56.0391091, "longitude": 12.7023573 }, "geometry": { "type": "Point", "coordinates": [ 12.7023573, 56.0391091 ] } },
{ "type": "Feature", "properties": { "name": "Thai Corner", "address": "Bruksgatan 34", "Serveringstider": "11:00—01:00", "latitude": 56.0439023, "longitude": 12.6970813 }, "geometry": { "type": "Point", "coordinates": [ 12.6970813, 56.0439023 ] } },
{ "type": "Feature", "properties": { "name": "Thaikrogen", "address": "Kurirgatan 1", "Serveringstider": "11:00—01:00 11:00—00:30", "latitude": 56.0653549, "longitude": 12.7005411 }, "geometry": { "type": "Point", "coordinates": [ 12.7005411, 56.0653549 ] } },
{ "type": "Feature", "properties": { "name": "The Filthy Fisherman", "address": "Kolmätaregränden 8", "Serveringstider": "11:00—01:00 11:00—00:30", "latitude": 56.0475202, "longitude": 12.6934536 }, "geometry": { "type": "Point", "coordinates": [ 12.6934536, 56.0475202 ] } },
{ "type": "Feature", "properties": { "name": "The South Indian", "address": "S:t Jörgens plats 8", "Serveringstider": "11:00—23:00 11:00—01:00", "latitude": 56.0503777, "longitude": 12.6911989 }, "geometry": { "type": "Point", "coordinates": [ 12.6911989, 56.0503777 ] } },
{ "type": "Feature", "properties": { "name": "The Tivoli", "address": "Köpenhamnskajen 1", "Serveringstider": "11:00—03:00 11:00—01:00 11:00—01:00 03:00—05:00", "latitude": 56.04534, "longitude": 12.69066 }, "geometry": { "type": "Point", "coordinates": [ 12.69066, 56.04534 ] } },
{ "type": "Feature", "properties": { "name": "The Vault Hotel", "address": "Stortorget 20", "Serveringstider": "11:00—01:00 11:00—02:00 11:00—00:00", "latitude": 56.0471492, "longitude": 12.6961524 }, "geometry": { "type": "Point", "coordinates": [ 12.6961524, 56.0471492 ] } },
{ "type": "Feature", "properties": { "name": "Timjan & Tång", "address": "Kajpromenaden 6", "Serveringstider": "11:00—01:00 11:30—23:30", "latitude": 56.0484377, "longitude": 12.6875493 }, "geometry": { "type": "Point", "coordinates": [ 12.6875493, 56.0484377 ] } },
{ "type": "Feature", "properties": { "name": "Torget", "address": "Sundstorget 7", "Serveringstider": "11:00—01:00 11:00—00:30", "latitude": 56.048593, "longitude": 12.6901805 }, "geometry": { "type": "Point", "coordinates": [ 12.6901805, 56.048593 ] } },
{ "type": "Feature", "properties": { "name": "Trappan 1899", "address": "Slottshagsgatan 1", "Serveringstider": "11:00—01:00", "latitude": 56.0486625, "longitude": 12.6978846 }, "geometry": { "type": "Point", "coordinates": [ 12.6978846, 56.0486625 ] } },
{ "type": "Feature", "properties": { "name": "Trivas på Råå", "address": "Rååvägen 20", "Serveringstider": "11:00—01:00 11:00—01:00 11:00—00:30", "latitude": 55.9989769, "longitude": 12.74095 }, "geometry": { "type": "Point", "coordinates": [ 12.74095, 55.9989769 ] } },
{ "type": "Feature", "properties": { "name": "Troppan", "address": "Parapeten 1", "Serveringstider": "11:00—01:00", "latitude": 56.0457685, "longitude": 12.6862622 }, "geometry": { "type": "Point", "coordinates": [ 12.6862622, 56.0457685 ] } },
{ "type": "Feature", "properties": { "name": "Tågvagnen", "address": "Gröningen", "Serveringstider": "11:00—00:00 11:00—01:00", "latitude": 56.0551489, "longitude": 12.6832459 }, "geometry": { "type": "Point", "coordinates": [ 12.6832459, 56.0551489 ] } },
{ "type": "Feature", "properties": { "name": "Utposten", "address": "Stortorget 17, Box 1121", "Serveringstider": "11:00—03:00 11:00—01:00", "latitude": 56.0474178, "longitude": 12.6959072 }, "geometry": { "type": "Point", "coordinates": [ 12.6959072, 56.0474178 ] } },
{ "type": "Feature", "properties": { "name": "Utsikten", "address": "Kajpromenaden 14", "Serveringstider": "11:00—23:00", "latitude": 56.0491891, "longitude": 12.6870382 }, "geometry": { "type": "Point", "coordinates": [ 12.6870382, 56.0491891 ] } },
{ "type": "Feature", "properties": { "name": "Vagnhall 16", "address": "Gåsebäcksvägen 2", "Serveringstider": "11:00—23:00 11:00—01:00 11:00—00:30 23:00—03:00 01:00—03:00 23:00—00:30", "latitude": 56.0344413, "longitude": 12.7072573 }, "geometry": { "type": "Point", "coordinates": [ 12.7072573, 56.0344413 ] } },
{ "type": "Feature", "properties": { "name": "Vasatorp Golfrestaurang", "address": "Vasatorpallén 54", "Serveringstider": "10:00—01:00 10:00—01:00 11:00—01:00", "latitude": 56.058, "longitude": 12.7885 }, "geometry": { "type": "Point", "coordinates": [ 12.7885, 56.058 ] } },
{ "type": "Feature", "properties": { "name": "Waynes Coffee", "address": "Rådhustorget 12", "Serveringstider": "11:00—20:00 11:00—20:00", "latitude": 56.0472716, "longitude": 12.6925039 }, "geometry": { "type": "Point", "coordinates": [ 12.6925039, 56.0472716 ] } },
{ "type": "Feature", "properties": { "name": "Ved By Maria", "address": "Södra kyrkogatan 22", "Serveringstider": "11:00—01:00 11:00—00:00 11:00—23:00 11:00—22:00", "latitude": 56.0460779, "longitude": 12.6968426 }, "geometry": { "type": "Point", "coordinates": [ 12.6968426, 56.0460779 ] } },
{ "type": "Feature", "properties": { "name": "Vegeriet", "address": "Järnvägsgatan 25", "Serveringstider": "11:00—01:00 11:00—00:00", "latitude": 56.0435149, "longitude": 12.6963418 }, "geometry": { "type": "Point", "coordinates": [ 12.6963418, 56.0435149 ] } },
{ "type": "Feature", "properties": { "name": "Venezia Pizzeria", "address": "Centralgatan 10", "Serveringstider": "11:00—01:00 11:00—00:30", "latitude": 56.1062362, "longitude": 12.7486172 }, "geometry": { "type": "Point", "coordinates": [ 12.7486172, 56.1062362 ] } },
{ "type": "Feature", "properties": { "name": "Viking bar", "address": "Gasverksgatan 13", "Serveringstider": "11:00—02:00 11:00—00:30 11:00—00:30", "latitude": 56.041028, "longitude": 12.700264 }, "geometry": { "type": "Point", "coordinates": [ 12.700264, 56.041028 ] } },
{ "type": "Feature", "properties": { "name": "Villa Thalassa", "address": "Dag Hamarskjölds Väg 117", "Serveringstider": "11:00—03:00 11:00—01:00", "latitude": 56.0709, "longitude": 12.6744 }, "geometry": { "type": "Point", "coordinates": [ 12.6744, 56.0709 ] } },
{ "type": "Feature", "properties": { "name": "Wok Express", "address": "Södra Brunnsvägen 57", "Serveringstider": "11:00—01:00 11:00—21:00", "latitude": 56.0205141, "longitude": 12.7513244 }, "geometry": { "type": "Point", "coordinates": [ 12.7513244, 56.0205141 ] } },
{ "type": "Feature", "properties": { "name": "YA-HA Kök & Bar", "address": "Kajpromenaden 2", "Serveringstider": "11:00—01:00 11:00—23:30", "latitude": 56.0481092, "longitude": 12.6877849 }, "geometry": { "type": "Point", "coordinates": [ 12.6877849, 56.0481092 ] } },
{ "type": "Feature", "properties": { "name": "Yammi Söder", "address": "Södergatan 30", "Serveringstider": "11:00—01:00 11:00—00:30", "latitude": 56.0407438, "longitude": 12.7013723 }, "geometry": { "type": "Point", "coordinates": [ 12.7013723, 56.0407438 ] } },
{ "type": "Feature", "properties": { "name": "Yazhou", "address": "Gasverksgatan 15", "Serveringstider": "11:00—02:00 11:00—00:30", "latitude": 56.0410681, "longitude": 12.7008051 }, "geometry": { "type": "Point", "coordinates": [ 12.7008051, 56.0410681 ] } },
{ "type": "Feature", "properties": { "name": "Zoom Bar & Restaurang", "address": "Norra Kyrkogatan 15", "Serveringstider": "10:00—01:00 10:00—00:30 11:00—01:00 01:00—03:00 03:00—05:00", "latitude": 56.0464663, "longitude": 12.6954498 }, "geometry": { "type": "Point", "coordinates": [ 12.6954498, 56.0464663 ] } },
{ "type": "Feature", "properties": { "name": "Zushi Helsingborg", "address": "Karlsgatan 1A", "Serveringstider": "11:00—01:00 11:00—00:00", "latitude": 56.0446129, "longitude": 12.697122 }, "geometry": { "type": "Point", "coordinates": [ 12.697122, 56.0446129 ] } },
{ "type": "Feature", "properties": { "name": "Zushi Ocean", "address": "Oceankajen 2", "Serveringstider": "11:00—00:00 11:00—01:00 11:00—00:00", "latitude": 56.0408159, "longitude": 12.6914488 }, "geometry": { "type": "Point", "coordinates": [ 12.6914488, 56.0408159 ] } },
{ "type": "Feature", "properties": { "name": "Ålgrändens Ost & Deli", "address": "Ålgränden 6", "Serveringstider": "12:00—00:00 12:00—00:00", "latitude": 56.04878, "longitude": 12.6914654 }, "geometry": { "type": "Point", "coordinates": [ 12.6914654, 56.04878 ] } },
{ "type": "Feature", "properties": { "name": "Åliven Helsingborg", "address": "Kullavägen 57", "Serveringstider": "11:00—01:00", "latitude": 56.0668308, "longitude": 12.7062828 }, "geometry": { "type": "Point", "coordinates": [ 12.7062828, 56.0668308 ] } },
{ "type": "Feature", "properties": { "name": "Ödåkra Brygghus", "address": "Fabriksgatan 2", "Serveringstider": "12:00—22:00 12:00—22:00", "latitude": 56.1031357, "longitude": 12.7424362 }, "geometry": { "type": "Point", "coordinates": [ 12.7424362, 56.1031357 ] } }
]
}
